CCSDS_OMM_VERS = 2.0
CREATION_DATE  = 
ORIGINATOR     = 

OBJECT_NAME    = SL-3 R/B
OBJECT_ID      = 1982-079B
CENTER_NAME    = EARTH
REF_FRAME      = TEME
TIME_SYSTEM    = UTC
MEAN_ELEMENT_THEORY = SGP/SGP4

EPOCH          = 2025-12-08T22:29:46.789440
MEAN_MOTION    = 15.23518732
ECCENTRICITY   = .0026939
INCLINATION    = 81.1473
RA_OF_ASC_NODE = 300.1424
ARG_OF_PERICENTER = 111.2301
MEAN_ANOMALY   = 249.1813

EPHEMERIS_TYPE = 0
CLASSIFICATION_TYPE = U
NORAD_CAT_ID   = 13403
ELEMENT_SET_NO = 999
REV_AT_EPOCH   = 36387
BSTAR          = .28168211E-3
MEAN_MOTION_DOT = .682E-4
MEAN_MOTION_DDOT = 0

CCSDS_OMM_VERS = 2.0
CREATION_DATE  = 
ORIGINATOR     = 

OBJECT_NAME    = SL-14 R/B
OBJECT_ID      = 1982-092B
CENTER_NAME    = EARTH
REF_FRAME      = TEME
TIME_SYSTEM    = UTC
MEAN_ELEMENT_THEORY = SGP/SGP4

EPOCH          = 2025-12-08T23:15:16.310592
MEAN_MOTION    = 14.86549519
ECCENTRICITY   = .00189908
INCLINATION    = 82.5688
RA_OF_ASC_NODE = 226.2381
ARG_OF_PERICENTER = 240.4689
MEAN_ANOMALY   = 130.0152

EPHEMERIS_TYPE = 0
CLASSIFICATION_TYPE = U
NORAD_CAT_ID   = 13553
ELEMENT_SET_NO = 999
REV_AT_EPOCH   = 31545
BSTAR          = .83118314E-4
MEAN_MOTION_DOT = .762E-5
MEAN_MOTION_DDOT = 0

CCSDS_OMM_VERS = 2.0
CREATION_DATE  = 
ORIGINATOR     = 

OBJECT_NAME    = SL-3 R/B
OBJECT_ID      = 1983-010B
CENTER_NAME    = EARTH
REF_FRAME      = TEME
TIME_SYSTEM    = UTC
MEAN_ELEMENT_THEORY = SGP/SGP4

EPOCH          = 2025-12-08T19:36:45.590976
MEAN_MOTION    = 15.43297612
ECCENTRICITY   = .00173789
INCLINATION    = 81.1042
RA_OF_ASC_NODE = 113.4063
ARG_OF_PERICENTER = 4.8116
MEAN_ANOMALY   = 355.3290

EPHEMERIS_TYPE = 0
CLASSIFICATION_TYPE = U
NORAD_CAT_ID   = 13819
ELEMENT_SET_NO = 999
REV_AT_EPOCH   = 34391
BSTAR          = .41345628E-3
MEAN_MOTION_DOT = .1855E-3
MEAN_MOTION_DDOT = 0

CCSDS_OMM_VERS = 2.0
CREATION_DATE  = 
ORIGINATOR     = 

OBJECT_NAME    = SL-3 R/B
OBJECT_ID      = 1983-075B
CENTER_NAME    = EARTH
REF_FRAME      = TEME
TIME_SYSTEM    = UTC
MEAN_ELEMENT_THEORY = SGP/SGP4

EPOCH          = 2025-12-08T22:39:07.953984
MEAN_MOTION    = 15.36016716
ECCENTRICITY   = .00223152
INCLINATION    = 97.6107
RA_OF_ASC_NODE = 339.2998
ARG_OF_PERICENTER = 189.0107
MEAN_ANOMALY   = 171.0739

EPHEMERIS_TYPE = 0
CLASSIFICATION_TYPE = U
NORAD_CAT_ID   = 14208
ELEMENT_SET_NO = 999
REV_AT_EPOCH   = 31621
BSTAR          = .36690226E-3
MEAN_MOTION_DOT = .12893E-3
MEAN_MOTION_DDOT = 0

CCSDS_OMM_VERS = 2.0
CREATION_DATE  = 
ORIGINATOR     = 

OBJECT_NAME    = COSMOS 1536
OBJECT_ID      = 1984-013A
CENTER_NAME    = EARTH
REF_FRAME      = TEME
TIME_SYSTEM    = UTC
MEAN_ELEMENT_THEORY = SGP/SGP4

EPOCH          = 2025-12-08T20:42:33.467904
MEAN_MOTION    = 15.22454522
ECCENTRICITY   = .00133652
INCLINATION    = 82.5455
RA_OF_ASC_NODE = 198.0093
ARG_OF_PERICENTER = 240.7047
MEAN_ANOMALY   = 119.2854

EPHEMERIS_TYPE = 0
CLASSIFICATION_TYPE = U
NORAD_CAT_ID   = 14699
ELEMENT_SET_NO = 999
REV_AT_EPOCH   = 25879
BSTAR          = .37665051E-3
MEAN_MOTION_DOT = .8767E-4
MEAN_MOTION_DDOT = 0

CCSDS_OMM_VERS = 2.0
CREATION_DATE  = 
ORIGINATOR     = 

OBJECT_NAME    = SL-14 R/B
OBJECT_ID      = 1984-027B
CENTER_NAME    = EARTH
REF_FRAME      = TEME
TIME_SYSTEM    = UTC
MEAN_ELEMENT_THEORY = SGP/SGP4

EPOCH          = 2025-12-08T23:40:23.413440
MEAN_MOTION    = 14.85867887
ECCENTRICITY   = .00163865
INCLINATION    = 82.5410
RA_OF_ASC_NODE = 330.0764
ARG_OF_PERICENTER = 274.4696
MEAN_ANOMALY   = 85.4648

EPHEMERIS_TYPE = 0
CLASSIFICATION_TYPE = U
NORAD_CAT_ID   = 14820
ELEMENT_SET_NO = 999
REV_AT_EPOCH   = 23416
BSTAR          = .94293575E-4
MEAN_MOTION_DOT = .847E-5
MEAN_MOTION_DDOT = 0

CCSDS_OMM_VERS = 2.0
CREATION_DATE  = 
ORIGINATOR     = 

OBJECT_NAME    = SL-8 R/B
OBJECT_ID      = 1985-006B
CENTER_NAME    = EARTH
REF_FRAME      = TEME
TIME_SYSTEM    = UTC
MEAN_ELEMENT_THEORY = SGP/SGP4

EPOCH          = 2025-12-08T17:24:53.340768
MEAN_MOTION    = 14.37717378
ECCENTRICITY   = .0018505
INCLINATION    = 74.0466
RA_OF_ASC_NODE = 68.5199
ARG_OF_PERICENTER = 1.7652
MEAN_ANOMALY   = 111.3932

EPHEMERIS_TYPE = 0
CLASSIFICATION_TYPE = U
NORAD_CAT_ID   = 15483
ELEMENT_SET_NO = 999
REV_AT_EPOCH   = 14095
BSTAR          = .14816869E-3
MEAN_MOTION_DOT = .42E-5
MEAN_MOTION_DDOT = 0

CCSDS_OMM_VERS = 2.0
CREATION_DATE  = 
ORIGINATOR     = 

OBJECT_NAME    = SL-12 R/B(2)
OBJECT_ID      = 1985-042D
CENTER_NAME    = EARTH
REF_FRAME      = TEME
TIME_SYSTEM    = UTC
MEAN_ELEMENT_THEORY = SGP/SGP4

EPOCH          = 2025-12-08T22:44:25.575936
MEAN_MOTION    = 14.21950118
ECCENTRICITY   = .0037677
INCLINATION    = 71.1085
RA_OF_ASC_NODE = 279.4311
ARG_OF_PERICENTER = 267.0895
MEAN_ANOMALY   = 155.8104

EPHEMERIS_TYPE = 0
CLASSIFICATION_TYPE = U
NORAD_CAT_ID   = 15772
ELEMENT_SET_NO = 999
REV_AT_EPOCH   = 10149
BSTAR          = .1442994E-3
MEAN_MOTION_DOT = .273E-5
MEAN_MOTION_DDOT = 0

CCSDS_OMM_VERS = 2.0
CREATION_DATE  = 
ORIGINATOR     = 

OBJECT_NAME    = SL-14 R/B
OBJECT_ID      = 1985-069B
CENTER_NAME    = EARTH
REF_FRAME      = TEME
TIME_SYSTEM    = UTC
MEAN_ELEMENT_THEORY = SGP/SGP4

EPOCH          = 2025-12-08T20:44:20.487264
MEAN_MOTION    = 14.86316884
ECCENTRICITY   = .00199396
INCLINATION    = 82.5264
RA_OF_ASC_NODE = 110.3462
ARG_OF_PERICENTER = 130.5466
MEAN_ANOMALY   = 229.7491

EPHEMERIS_TYPE = 0
CLASSIFICATION_TYPE = U
NORAD_CAT_ID   = 15945
ELEMENT_SET_NO = 999
REV_AT_EPOCH   = 15934
BSTAR          = .10547341E-3
MEAN_MOTION_DOT = .956E-5
MEAN_MOTION_DDOT = 0

CCSDS_OMM_VERS = 2.0
CREATION_DATE  = 
ORIGINATOR     = 

OBJECT_NAME    = SL-16 R/B
OBJECT_ID      = 1985-097B
CENTER_NAME    = EARTH
REF_FRAME      = TEME
TIME_SYSTEM    = UTC
MEAN_ELEMENT_THEORY = SGP/SGP4

EPOCH          = 2025-12-08T23:03:02.129184
MEAN_MOTION    = 14.16581990
ECCENTRICITY   = .00064415
INCLINATION    = 71.0029
RA_OF_ASC_NODE = 331.5597
ARG_OF_PERICENTER = 16.9248
MEAN_ANOMALY   = 13.9287

EPHEMERIS_TYPE = 0
CLASSIFICATION_TYPE = U
NORAD_CAT_ID   = 16182
ELEMENT_SET_NO = 999
REV_AT_EPOCH   = 7438
BSTAR          = .75069676E-4
MEAN_MOTION_DOT = .102E-5
MEAN_MOTION_DDOT = 0

CCSDS_OMM_VERS = 2.0
CREATION_DATE  = 
ORIGINATOR     = 

OBJECT_NAME    = SL-14 R/B
OBJECT_ID      = 1986-006B
CENTER_NAME    = EARTH
REF_FRAME      = TEME
TIME_SYSTEM    = UTC
MEAN_ELEMENT_THEORY = SGP/SGP4

EPOCH          = 2025-12-08T23:57:12.729600
MEAN_MOTION    = 14.86663800
ECCENTRICITY   = .00758646
INCLINATION    = 82.5264
RA_OF_ASC_NODE = 345.0722
ARG_OF_PERICENTER = 212.3468
MEAN_ANOMALY   = 147.3087

EPHEMERIS_TYPE = 0
CLASSIFICATION_TYPE = U
NORAD_CAT_ID   = 16496
ELEMENT_SET_NO = 999
REV_AT_EPOCH   = 13573
BSTAR          = .10377387E-3
MEAN_MOTION_DOT = .997E-5
MEAN_MOTION_DDOT = 0

CCSDS_OMM_VERS = 2.0
CREATION_DATE  = 
ORIGINATOR     = 

OBJECT_NAME    = COSMOS 1743
OBJECT_ID      = 1986-034A
CENTER_NAME    = EARTH
REF_FRAME      = TEME
TIME_SYSTEM    = UTC
MEAN_ELEMENT_THEORY = SGP/SGP4

EPOCH          = 2025-12-08T23:30:12.824640
MEAN_MOTION    = 15.51849355
ECCENTRICITY   = .00046868
INCLINATION    = 82.5348
RA_OF_ASC_NODE = 168.4969
ARG_OF_PERICENTER = 270.2692
MEAN_ANOMALY   = 89.8023

EPHEMERIS_TYPE = 0
CLASSIFICATION_TYPE = U
NORAD_CAT_ID   = 16719
ELEMENT_SET_NO = 999
REV_AT_EPOCH   = 16615
BSTAR          = .54301546E-3
MEAN_MOTION_DOT = .3261E-3
MEAN_MOTION_DDOT = 0

