SL-3 R/B                
1 13403U 82079B   25342.93734710  .00006820  00000+0  28168-3 0  9990
2 13403  81.1473 300.1424 0026939 111.2301 249.1813 15.23518732363871
SL-14 R/B               
1 13553U 82092B   25342.96893878  .00000762  00000+0  83118-4 0  9991
2 13553  82.5688 226.2381 0018990 240.4689 130.0152 14.86549519315452
SL-3 R/B                
1 13819U 83010B   25342.81719434  .00018550  00000+0  41346-3 0  9996
2 13819  81.1042 113.4063 0017378   4.8116 355.3290 15.43297612343911
SL-3 R/B                
1 14208U 83075B   25342.94384206  .00012893  00000+0  36690-3 0  9999
2 14208  97.6107 339.2998 0022315 189.0107 171.0739 15.36016716316216
COSMOS 1536             
1 14699U 84013A   25342.86288736  .00008767  00000+0  37665-3 0  9996
2 14699  82.5455 198.0093 0013365 240.7047 119.2854 15.22454522258795
SL-14 R/B               
1 14820U 84027B   25342.98638210  .00000847  00000+0  94294-4 0  9999
2 14820  82.5410 330.0764 0016386 274.4696  85.4648 14.85867887234165
SL-8 R/B                
1 15483U 85006B   25342.72561737  .00000420  00000+0  14817-3 0  9993
2 15483  74.0466  68.5199 0018505   1.7652 111.3932 14.37717378140955
SL-12 R/B(2)            
1 15772U 85042D   25342.94751824  .00000273  00000+0  14430-3 0  9993
2 15772  71.1085 279.4311 0037677 267.0895 155.8104 14.21950118101491
SL-14 R/B               
1 15945U 85069B   25342.86412601  .00000956  00000+0  10547-3 0  9995
2 15945  82.5264 110.3462 0019939 130.5466 229.7491 14.86316884159341
SL-16 R/B               
1 16182U 85097B   25342.96044131  .00000102  00000+0  75070-4 0  9996
2 16182  71.0029 331.5597 0006441  16.9248  13.9287 14.16581990 74383
SL-14 R/B               
1 16496U 86006B   25342.99806400  .00000997  00000+0  10377-3 0  9993
2 16496  82.5264 345.0722 0075864 212.3468 147.3087 14.86663800135735
COSMOS 1743             
1 16719U 86034A   25342.97931510  .00032610  00000+0  54302-3 0  9994
2 16719  82.5348 168.4969 0004686 270.2692  89.8023 15.51849355166156
